{"fetched_at":"2026-07-17T06:37:56.553Z","source":"https://celestrak.org/NORAD/elements/gp.php?GROUP=spire&FORMAT=JSON","constellation":"spire","records":[{"OBJECT_NAME":"LEMUR-1","OBJECT_ID":"2014-033AL","EPOCH":"2026-07-16T20:50:21.394752","CLASSIFICATION_TYPE":"U","MEAN_MOTION":14.85339656,"ECCENTRICITY":0.004759,"INCLINATION":97.7911,"RA_OF_ASC_NODE":347.0211,"ARG_OF_PERICENTER":342.3747,"MEAN_ANOMALY":17.5814,"EPHEMERIS_TYPE":0,"NORAD_CAT_ID":40044,"ELEMENT_SET_NO":999,"REV_AT_EPOCH":64987,"BSTAR":0.000091711,"MEAN_MOTION_DOT":0.00000748,"MEAN_MOTION_DDOT":0},{"OBJECT_NAME":"LEMUR-2-GREENBERG","OBJECT_ID":"2017-042N","EPOCH":"2026-07-16T11:36:33.647328","CLASSIFICATION_TYPE":"U","MEAN_MOTION":15.32177816,"ECCENTRICITY":0.0007251,"INCLINATION":97.3829,"RA_OF_ASC_NODE":17.9935,"ARG_OF_PERICENTER":254.1864,"MEAN_ANOMALY":105.8578,"EPHEMERIS_TYPE":0,"NORAD_CAT_ID":42837,"ELEMENT_SET_NO":999,"REV_AT_EPOCH":49287,"BSTAR":0.00030816,"MEAN_MOTION_DOT":0.00009505,"MEAN_MOTION_DDOT":0},{"OBJECT_NAME":"LEMUR-2-ANDIS","OBJECT_ID":"2017-042P","EPOCH":"2026-07-16T10:38:27.258720","CLASSIFICATION_TYPE":"U","MEAN_MOTION":15.3595697,"ECCENTRICITY":0.0007241,"INCLINATION":97.3681,"RA_OF_ASC_NODE":18.2427,"ARG_OF_PERICENTER":252.833,"MEAN_ANOMALY":107.2121,"EPHEMERIS_TYPE":0,"NORAD_CAT_ID":42838,"ELEMENT_SET_NO":999,"REV_AT_EPOCH":49294,"BSTAR":0.00037176,"MEAN_MOTION_DOT":0.00012949,"MEAN_MOTION_DDOT":0},{"OBJECT_NAME":"LEMUR-2-MONSON","OBJECT_ID":"2017-042Q","EPOCH":"2026-07-16T11:47:23.784864","CLASSIFICATION_TYPE":"U","MEAN_MOTION":15.28773757,"ECCENTRICITY":0.0005395,"INCLINATION":97.409,"RA_OF_ASC_NODE":17.9272,"ARG_OF_PERICENTER":239.7069,"MEAN_ANOMALY":120.3638,"EPHEMERIS_TYPE":0,"NORAD_CAT_ID":42839,"ELEMENT_SET_NO":999,"REV_AT_EPOCH":49264,"BSTAR":0.00028284,"MEAN_MOTION_DOT":0.00007839,"MEAN_MOTION_DDOT":0},{"OBJECT_NAME":"LEMUR-2-FURIAUS","OBJECT_ID":"2017-042R","EPOCH":"2026-07-16T11:56:24.813888","CLASSIFICATION_TYPE":"U","MEAN_MOTION":15.3115787,"ECCENTRICITY":0.0005913,"INCLINATION":97.3778,"RA_OF_ASC_NODE":15.896,"ARG_OF_PERICENTER":324.3797,"MEAN_ANOMALY":35.7049,"EPHEMERIS_TYPE":0,"NORAD_CAT_ID":42840,"ELEMENT_SET_NO":999,"REV_AT_EPOCH":49269,"BSTAR":0.00033733,"MEAN_MOTION_DOT":0.00010084,"MEAN_MOTION_DDOT":0},{"OBJECT_NAME":"LEMUR-2-PETERG","OBJECT_ID":"2017-042S","EPOCH":"2026-07-16T10:40:45.763104","CLASSIFICATION_TYPE":"U","MEAN_MOTION":15.35058112,"ECCENTRICITY":0.0003389,"INCLINATION":97.3992,"RA_OF_ASC_NODE":22.5485,"ARG_OF_PERICENTER":214.3366,"MEAN_ANOMALY":145.7659,"EPHEMERIS_TYPE":0,"NORAD_CAT_ID":42841,"ELEMENT_SET_NO":999,"REV_AT_EPOCH":49292,"BSTAR":0.00034148,"MEAN_MOTION_DOT":0.00011542,"MEAN_MOTION_DDOT":0},{"OBJECT_NAME":"LEMUR-2-DEMBITZ","OBJECT_ID":"2017-042T","EPOCH":"2026-07-16T10:50:45.794688","CLASSIFICATION_TYPE":"U","MEAN_MOTION":15.31130878,"ECCENTRICITY":0.0005066,"INCLINATION":97.3828,"RA_OF_ASC_NODE":18.8957,"ARG_OF_PERICENTER":269.0377,"MEAN_ANOMALY":91.0284,"EPHEMERIS_TYPE":0,"NORAD_CAT_ID":42842,"ELEMENT_SET_NO":999,"REV_AT_EPOCH":49282,"BSTAR":0.00028805,"MEAN_MOTION_DOT":0.00008589,"MEAN_MOTION_DDOT":0},{"OBJECT_NAME":"LEMUR-2-ZACHARY","OBJECT_ID":"2017-042W","EPOCH":"2026-07-16T20:33:34.839072","CLASSIFICATION_TYPE":"U","MEAN_MOTION":15.52821658,"ECCENTRICITY":0.0002639,"INCLINATION":97.357,"RA_OF_ASC_NODE":30.1782,"ARG_OF_PERICENTER":236.7735,"MEAN_ANOMALY":123.3265,"EPHEMERIS_TYPE":0,"NORAD_CAT_ID":42845,"ELEMENT_SET_NO":999,"REV_AT_EPOCH":49380,"BSTAR":0.00049029,"MEAN_MOTION_DOT":0.00030352,"MEAN_MOTION_DDOT":0},{"OBJECT_NAME":"LEMUR-2-AMANDA-SVANTE","OBJECT_ID":"2021-034B","EPOCH":"2026-07-16T16:31:32.098080","CLASSIFICATION_TYPE":"U","MEAN_MOTION":15.36019311,"ECCENTRICITY":0.0004667,"INCLINATION":97.575,"RA_OF_ASC_NODE":276.7885,"ARG_OF_PERICENTER":139.8945,"MEAN_ANOMALY":220.2643,"EPHEMERIS_TYPE":0,"NORAD_CAT_ID":48269,"ELEMENT_SET_NO":999,"REV_AT_EPOCH":28558,"BSTAR":0.00056482,"MEAN_MOTION_DOT":0.0001976,"MEAN_MOTION_DDOT":0},{"OBJECT_NAME":"LEMUR-2-SPECIAL-K","OBJECT_ID":"2021-034F","EPOCH":"2026-07-16T05:21:10.251648","CLASSIFICATION_TYPE":"U","MEAN_MOTION":15.75087247,"ECCENTRICITY":0.0006279,"INCLINATION":97.5633,"RA_OF_ASC_NODE":286.4062,"ARG_OF_PERICENTER":212.8733,"MEAN_ANOMALY":147.2141,"EPHEMERIS_TYPE":0,"NORAD_CAT_ID":48273,"ELEMENT_SET_NO":999,"REV_AT_EPOCH":28624,"BSTAR":0.0011202,"MEAN_MOTION_DOT":0.00169731,"MEAN_MOTION_DDOT":0},{"OBJECT_NAME":"LEMUR-2-EMBRIONOVIS","OBJECT_ID":"2023-084AQ","EPOCH":"2026-07-16T08:25:18.348384","CLASSIFICATION_TYPE":"U","MEAN_MOTION":15.3824788,"ECCENTRICITY":0.0008415,"INCLINATION":97.6327,"RA_OF_ASC_NODE":342.6901,"ARG_OF_PERICENTER":202.024,"MEAN_ANOMALY":158.0643,"EPHEMERIS_TYPE":0,"NORAD_CAT_ID":56970,"ELEMENT_SET_NO":999,"REV_AT_EPOCH":17216,"BSTAR":0.00020418,"MEAN_MOTION_DOT":0.00007614,"MEAN_MOTION_DDOT":0},{"OBJECT_NAME":"LEMUR-2-DEVERILL-M-T","OBJECT_ID":"2023-100F","EPOCH":"2026-07-16T15:49:19.852320","CLASSIFICATION_TYPE":"U","MEAN_MOTION":15.41137579,"ECCENTRICITY":0.0004719,"INCLINATION":99.4449,"RA_OF_ASC_NODE":244.9632,"ARG_OF_PERICENTER":290.8898,"MEAN_ANOMALY":69.1836,"EPHEMERIS_TYPE":0,"NORAD_CAT_ID":57391,"ELEMENT_SET_NO":999,"REV_AT_EPOCH":16578,"BSTAR":0.00037063,"MEAN_MOTION_DOT":0.00015249,"MEAN_MOTION_DDOT":0},{"OBJECT_NAME":"LEMUR-2-BASS","OBJECT_ID":"2023-174D","EPOCH":"2026-07-16T04:30:33.943104","CLASSIFICATION_TYPE":"U","MEAN_MOTION":15.44014456,"ECCENTRICITY":0.0007619,"INCLINATION":97.3848,"RA_OF_ASC_NODE":282.3238,"ARG_OF_PERICENTER":75.226,"MEAN_ANOMALY":284.9831,"EPHEMERIS_TYPE":0,"NORAD_CAT_ID":58259,"ELEMENT_SET_NO":999,"REV_AT_EPOCH":14983,"BSTAR":0.00021365,"MEAN_MOTION_DOT":0.00009663,"MEAN_MOTION_DDOT":0},{"OBJECT_NAME":"LEMUR-2-JK0903EM1407","OBJECT_ID":"2023-174CJ","EPOCH":"2026-07-16T15:57:58.139136","CLASSIFICATION_TYPE":"U","MEAN_MOTION":15.53118996,"ECCENTRICITY":0.0003475,"INCLINATION":97.3924,"RA_OF_ASC_NODE":288.9977,"ARG_OF_PERICENTER":27.8497,"MEAN_ANOMALY":332.2942,"EPHEMERIS_TYPE":0,"NORAD_CAT_ID":58336,"ELEMENT_SET_NO":999,"REV_AT_EPOCH":15030,"BSTAR":0.00027999,"MEAN_MOTION_DOT":0.00017451,"MEAN_MOTION_DDOT":0},{"OBJECT_NAME":"LEMUR-2-MJR092620","OBJECT_ID":"2023-174CN","EPOCH":"2026-07-16T10:13:09.291072","CLASSIFICATION_TYPE":"U","MEAN_MOTION":15.45889827,"ECCENTRICITY":0.0005202,"INCLINATION":97.3976,"RA_OF_ASC_NODE":288.0144,"ARG_OF_PERICENTER":26.2655,"MEAN_ANOMALY":333.8856,"EPHEMERIS_TYPE":0,"NORAD_CAT_ID":58340,"ELEMENT_SET_NO":999,"REV_AT_EPOCH":15016,"BSTAR":0.00021971,"MEAN_MOTION_DOT":0.00010592,"MEAN_MOTION_DDOT":0},{"OBJECT_NAME":"LEMUR-2-NIMBUS2000","OBJECT_ID":"2024-022A","EPOCH":"2026-07-16T13:36:37.588608","CLASSIFICATION_TYPE":"U","MEAN_MOTION":15.41153193,"ECCENTRICITY":0.0008618,"INCLINATION":97.4075,"RA_OF_ASC_NODE":47.9572,"ARG_OF_PERICENTER":24.2441,"MEAN_ANOMALY":335.9209,"EPHEMERIS_TYPE":0,"NORAD_CAT_ID":58899,"ELEMENT_SET_NO":999,"REV_AT_EPOCH":13679,"BSTAR":0.00031938,"MEAN_MOTION_DOT":0.00013172,"MEAN_MOTION_DDOT":0}]}
